MEAN_MOTION;ECCENTRICITY;INCLINATION;RA_OF_ASC_NODE;ARG_OF_PERICENTER;MEAN_ANOMALY;BSTAR;MEAN_MOTION_DOT;MEAN_MOTION_DDOT;TYPE
14.32883213;9.91E-5;45.0085;232.7356;2.7046;357.3805;5.7123E-5;1.7E-7;0;Orbcomm
14.32883607;8.94E-5;45.0086;227.8188;7.7699;352.3161;5.4569E-5;1.0E-7;0;Orbcomm
14.32883633;8.88E-5;45.0086;227.491;8.053;352.033;5.4123E-5;8.0E-8;0;Orbcomm
14.32884067;7.99E-5;45.0087;223.2296;12.9495;347.1371;5.8217E-5;2.0E-7;0;Orbcomm
14.32884349;7.43E-5;45.0087;220.2794;16.2167;343.8703;6.0529E-5;2.6E-7;0;Orbcomm
14.32884394;7.37E-5;45.0088;219.9516;16.8615;343.2256;6.1444E-5;2.9E-7;0;Orbcomm
14.32884482;7.24E-5;45.0088;218.9683;18.2294;341.8578;6.3024E-5;3.3E-7;0;Orbcomm
14.32884876;6.28E-5;45.0087;215.3624;23.6089;336.4786;6.9682E-5;5.1E-7;0;Orbcomm
14.32884974;6.14E-5;45.0087;214.3792;25.0091;335.0785;7.1736E-5;5.7E-7;0;Orbcomm
14.32885453;5.22E-5;45.0087;209.4624;31.8038;328.284;7.7523E-5;7.3E-7;0;Orbcomm
14.32885684;4.77E-5;45.0087;206.1845;37.6084;322.4796;7.7172E-5;7.2E-7;0;Orbcomm
14.32886032;3.88E-5;45.0087;201.2676;48.7075;311.3804;7.5667E-5;6.8E-7;0;Orbcomm
14.32886377;3.16E-5;45.0087;195.3674;67.6908;292.3972;6.7388E-5;4.5E-7;0;Orbcomm
14.32886749;2.74E-5;45.0089;190.4507;86.5496;273.5381;6.379E-5;3.5E-7;0;Orbcomm
14.32887123;2.64E-5;45.009;185.8618;110.6499;249.4376;6.3738E-5;3.5E-7;0;Orbcomm
14.32887241;2.6E-5;45.009;184.2229;116.4871;243.6002;6.3375E-5;3.4E-7;0;Orbcomm
14.32887501;2.9E-5;45.009;180.6172;135.026;225.061;6.2221E-5;3.1E-7;0;Orbcomm
14.32887773;3.32E-5;45.009;177.6671;147.1447;212.942;6.6435E-5;4.2E-7;0;Orbcomm
14.32888183;3.9E-5;45.009;172.7504;161.3279;198.7582;7.1253E-5;5.6E-7;0;Orbcomm
14.32888183;3.9E-5;45.009;172.7504;161.3279;198.7582;7.1253E-5;5.6E-7;0;Orbcomm
14.32888438;4.54E-5;45.0089;168.1614;171.0835;189.0019;6.8234E-5;4.7E-7;0;Orbcomm
14.32888715;5.33E-5;45.0088;162.9168;179.4828;180.6019;6.1199E-5;2.8E-7;0;Orbcomm
14.32888839;5.82E-5;45.0087;160.2944;183.3473;176.7369;5.6528E-5;1.5E-7;0;Orbcomm
14.32888971;6.08E-5;45.0086;158;185.7048;174.3791;5.3828E-5;8.0E-8;0;Orbcomm
14.3288925;6.68E-5;45.0086;154.3942;190.3035;169.7798;5.5054E-5;1.1E-7;0;Orbcomm
14.32889647;7.4E-5;45.0086;149.4774;195.6618;164.4206;5.746E-5;1.8E-7;0;Orbcomm
14.32889785;7.67E-5;45.0086;147.5106;198.0116;162.0703;5.6722E-5;1.6E-7;0;Orbcomm
14.32890027;8.07E-5;45.0086;144.8883;200.6754;159.4059;6.1566E-5;2.9E-7;0;Orbcomm
14.32890307;8.59E-5;45.0086;141.6103;203.9063;156.1743;6.5539E-5;4.0E-7;0;Orbcomm
14.32890457;8.79E-5;45.0086;139.9714;205.052;155.0284;6.857E-5;4.8E-7;0;Orbcomm
14.32890773;9.37E-5;45.0086;135.7101;208.6248;151.4547;7.115E-5;5.5E-7;0;Orbcomm
14.32890965;9.68E-5;45.0086;133.4155;210.7767;149.3023;7.2833E-5;6.0E-7;0;Orbcomm
14.32891224;0.0001;45.0085;130.7932;212.2402;147.8383;7.7597E-5;7.3E-7;0;Orbcomm
14.32891248;0.0001005;45.0085;130.4654;212.4207;147.6578;7.7282E-5;7.2E-7;0;Orbcomm
14.3289137;0.0001026;45.0086;128.8264;213.9744;146.1037;7.6262E-5;6.9E-7;0;Orbcomm
14.32891792;0.0001081;45.0085;124.2372;217.0429;143.0343;7.6039E-5;6.9E-7;0;Orbcomm
14.32891891;0.0001102;45.0085;122.926;217.6286;142.4483;7.4264E-5;6.4E-7;0;Orbcomm
14.32892229;0.0001138;45.0085;119.3203;220.5993;139.4768;7.2919E-5;6.0E-7;0;Orbcomm
14.32892404;0.0001161;45.0085;116.6979;221.999;138.0767;6.6591E-5;4.3E-7;0;Orbcomm
14.32892574;0.0001182;45.0085;114.7311;223.6657;136.4095;6.4633E-5;3.7E-7;0;Orbcomm
14.3289298;0.0001228;45.0086;110.4697;226.0569;134.0176;6.192E-5;3.0E-7;0;Orbcomm
14.32893015;0.0001234;45.0086;110.1419;226.2733;133.8011;6.2867E-5;3.3E-7;0;Orbcomm
14.32893683;0.0001261;45.0086;105.2248;229.8921;130.1815;7.7837E-5;7.4E-7;0;Orbcomm
14.32893794;0.0001278;45.0086;104.2414;229.9326;130.1408;7.7807E-5;7.4E-7;0;Orbcomm
14.32894125;0.0001306;45.0087;100.6356;232.3201;127.7527;8.2176E-5;8.6E-7;0;Orbcomm
14.32894262;0.0001342;45.0088;98.0132;233.0898;126.9825;7.7167E-5;7.2E-7;0;Orbcomm
14.32894368;0.000136;45.0089;95.7185;234.5872;125.4847;7.3501E-5;6.2E-7;0;Orbcomm
14.32894524;0.0001378;45.009;91.1293;237.2803;122.7911;6.4811E-5;3.8E-7;0;Orbcomm
14.3289461;0.0001392;45.0091;90.1459;237.3739;122.6973;6.4199E-5;3.6E-7;0;Orbcomm
14.32894742;0.0001377;45.0091;88.8348;238.375;121.6962;6.6813E-5;4.3E-7;0;Orbcomm
14.32895156;0.0001385;45.0093;84.2458;240.9669;119.1039;6.8049E-5;4.7E-7;0;Orbcomm
14.32895413;0.0001417;45.0094;81.6234;242.1903;117.8799;6.7953E-5;4.7E-7;0;Orbcomm
14.32895941;0.0001426;45.0096;77.0343;244.4793;115.5906;7.0656E-5;5.4E-7;0;Orbcomm
14.32896362;0.0001416;45.0096;75.0677;245.333;114.7369;7.9586E-5;7.9E-7;0;Orbcomm
14.32896754;0.0001429;45.0097;71.4619;246.6886;113.381;7.8352E-5;7.5E-7;0;Orbcomm
14.32897102;0.0001449;45.0098;67.8562;248.6153;111.4539;7.7129E-5;7.2E-7;0;Orbcomm
14.32897232;0.0001451;45.0099;66.5451;248.919;111.1501;7.7126E-5;7.2E-7;0;Orbcomm
14.32897587;0.0001463;45.01;62.9393;250.6472;109.4216;7.859E-5;7.6E-7;0;Orbcomm
14.32897674;0.0001453;45.0101;60.9727;251.5234;108.5454;7.5598E-5;6.8E-7;0;Orbcomm
14.3289789;0.000146;45.0102;58.3503;252.6421;107.4266;7.6714E-5;7.1E-7;0;Orbcomm
14.32898019;0.0001453;45.0102;56.3837;253.4372;106.6315;7.6578E-5;7.0E-7;0;Orbcomm
14.32898266;0.0001459;45.0104;52.4501;254.8469;105.2216;7.5036E-5;6.6E-7;0;Orbcomm
14.32898287;0.0001458;45.0104;51.7946;255.3193;104.7491;7.3233E-5;6.1E-7;0;Orbcomm
14.32898459;0.0001462;45.0105;49.1723;256.2431;103.8253;7.1882E-5;5.7E-7;0;Orbcomm
14.32898655;0.0001457;45.0105;47.2056;256.9302;103.1382;7.3831E-5;6.3E-7;0;Orbcomm
14.32899105;0.0001455;45.0107;42.6167;258.54;101.5283;7.4907E-5;6.6E-7;0;Orbcomm
14.32899441;0.0001459;45.0108;39.3389;259.6767;100.3915;7.4247E-5;6.4E-7;0;Orbcomm
14.32899648;0.0001448;45.0108;38.3556;259.8696;100.1987;7.9538E-5;7.9E-7;0;Orbcomm
14.32900022;0.0001445;45.0109;34.7499;260.7503;99.318;7.7515E-5;7.3E-7;0;Orbcomm
14.32900159;0.0001441;45.011;33.4389;261.3776;98.6907;7.81E-5;7.5E-7;0;Orbcomm
14.32900476;0.0001437;45.011;30.1611;262.3571;97.7112;7.665E-5;7.1E-7;0;Orbcomm
14.32900557;0.000143;45.011;28.5224;263.0767;96.9917;7.444E-5;6.4E-7;0;Orbcomm
14.32900813;0.0001425;45.011;25.5723;263.8122;96.2562;7.4194E-5;6.4E-7;0;Orbcomm
14.32901125;0.0001398;45.011;20.6557;264.8994;95.1693;7.2138E-5;5.8E-7;0;Orbcomm
14.32901173;0.0001391;45.011;19.6724;265.4411;94.6277;7.154E-5;5.7E-7;0;Orbcomm
14.32901382;0.0001385;45.0109;16.0668;266.113;93.9558;6.9218E-5;5.0E-7;0;Orbcomm
14.32901613;0.0001378;45.0108;11.8056;267.1377;92.9311;6.7195E-5;4.5E-7;0;Orbcomm
14.32901678;0.0001373;45.0108;10.8223;267.3408;92.7281;6.7442E-5;4.5E-7;0;Orbcomm
14.32901959;0.0001359;45.0108;6.8889;268.1484;91.9206;6.5987E-5;4.1E-7;0;Orbcomm
14.32901976;0.0001357;45.0108;6.5611;268.3063;91.7628;6.5847E-5;4.1E-7;0;Orbcomm
14.32902219;0.0001354;45.0108;3.611;269.2193;90.8498;6.5509E-5;4.0E-7;0;Orbcomm
14.3290236;0.0001342;45.0108;1.9721;269.2463;90.8229;6.4665E-5;3.8E-7;0;Orbcomm
14.32902446;0.0001338;45.0107;0.9888;269.7524;90.3169;6.4694E-5;3.8E-7;0;Orbcomm
14.32902799;0.0001335;45.0107;357.3831;270.3619;89.7074;6.4908E-5;3.8E-7;0;Orbcomm
14.32903234;0.0001316;45.0107;353.1219;270.8104;89.2592;6.5899E-5;4.1E-7;0;Orbcomm
14.32903358;0.0001316;45.0107;352.4665;271.385;88.6846;6.9625E-5;5.1E-7;0;Orbcomm
14.32903871;0.0001298;45.0106;347.8774;271.3009;88.7689;7.4852E-5;6.6E-7;0;Orbcomm
14.32904003;0.0001292;45.0106;346.8942;271.2901;88.7797;7.7384E-5;7.3E-7;0;Orbcomm
14.32904388;0.0001279;45.0105;342.9607;271.61;88.46;8.0766E-5;8.2E-7;0;Orbcomm
14.32904708;0.0001268;45.0104;339.0272;272.176;87.8941;8.0621E-5;8.2E-7;0;Orbcomm
14.32905063;0.0001259;45.0102;334.7659;273.0641;87.0061;8.1721E-5;8.5E-7;0;Orbcomm
14.32905184;0.0001249;45.0102;333.127;273.2293;86.841;8.093E-5;8.2E-7;0;Orbcomm
14.32905503;0.0001239;45.0101;329.1935;273.3772;86.6933;7.8857E-5;7.7E-7;0;Orbcomm
14.32905562;0.0001236;45.0101;328.5379;273.624;86.4465;7.8509E-5;7.6E-7;0;Orbcomm
14.32905876;0.0001231;45.01;324.9321;273.5495;86.5211;7.5865E-5;6.8E-7;0;Orbcomm
14.32906021;0.0001227;45.01;324.2765;273.7086;86.362;8.1045E-5;8.3E-7;0;Orbcomm
14.32906048;0.0001226;45.01;323.9488;273.8747;86.1959;8.057E-5;8.1E-7;0;Orbcomm
14.32906334;0.000122;45.01;320.0151;273.6944;86.3763;7.3293E-5;6.1E-7;0;Orbcomm
14.32906364;0.0001217;45.01;319.6874;273.8506;86.2201;7.3298E-5;6.1E-7;0;Orbcomm
14.32906701;0.0001211;45.0099;315.0982;274.099;85.9718;6.7364E-5;4.5E-7;0;Orbcomm
14.32906782;0.0001208;45.0099;314.4426;273.7821;86.2887;6.7645E-5;4.6E-7;0;Orbcomm
14.32907259;0.0001206;45.0099;310.509;274.0949;85.9759;7.4019E-5;6.3E-7;0;Orbcomm
14.32907769;0.0001206;45.0099;305.9199;273.9363;86.1345;7.79E-5;7.4E-7;0;Orbcomm
14.3290781;0.0001205;45.0099;305.5921;274.0192;86.0517;7.8536E-5;7.6E-7;0;Orbcomm
14.32908192;0.0001201;45.0099;301.0031;274.9259;85.145;7.8239E-5;7.5E-7;0;Orbcomm
14.32908224;0.0001202;45.0098;300.6753;274.9402;85.1307;7.8168E-5;7.5E-7;0;Orbcomm
14.32908632;0.0001201;45.0098;296.0862;275.2518;84.8191;7.8595E-5;7.6E-7;0;Orbcomm
14.32908978;0.0001206;45.0097;291.8248;274.9226;85.1483;7.5409E-5;6.7E-7;0;Orbcomm
14.32909003;0.0001206;45.0097;291.497;274.987;85.0838;7.4889E-5;6.6E-7;0;Orbcomm
14.32909343;0.0001208;45.0096;286.9079;275.114;84.9568;6.889E-5;4.9E-7;0;Orbcomm
14.32909343;0.0001208;45.0096;286.9079;275.114;84.9568;6.889E-5;4.9E-7;0;Orbcomm
14.32909576;0.0001212;45.0095;283.6298;275.255;84.8158;6.3946E-5;3.6E-7;0;Orbcomm
14.32909665;0.0001212;45.0095;282.3187;275.3927;84.6781;6.239E-5;3.1E-7;0;Orbcomm
14.32909882;0.0001224;45.0095;279.6963;275.4952;84.5755;6.1355E-5;2.8E-7;0;Orbcomm
14.32910066;0.000122;45.0095;277.7296;275.6925;84.3783;6.2181E-5;3.1E-7;0;Orbcomm
14.32910315;0.000123;45.0095;274.7794;276.054;84.0166;6.2394E-5;3.1E-7;0;Orbcomm
14.3291035;0.0001233;45.0096;274.4516;275.9175;84.1531;6.2449E-5;3.1E-7;0;Orbcomm
14.3291052;0.0001229;45.0095;272.8127;276.2625;83.8082;6.5329E-5;3.9E-7;0;Orbcomm
14.32910862;0.0001237;45.0095;268.8791;276.6973;83.3732;6.8362E-5;4.8E-7;0;Orbcomm
14.32910901;0.0001236;45.0095;268.5514;276.808;83.2626;6.9251E-5;5.0E-7;0;Orbcomm
